{
  "type": "FeatureCollection",
  "features": [
    {
      "type": "Feature",
      "properties": {
        "norad_id": 36681,
        "name": "FENGYUN 1C DEB",
        "group": "fengyun-1c-debris",
        "lat": 11.823439162409862,
        "lon": 173.689603055108,
        "alt_km": 891.0000636751811,
        "timestamp": "2025-12-19T10:50:01.489313+00:00",
        "meta_object_name": "FENGYUN 1C DEB",
        "meta_object_id": "1999-025DZB",
        "meta_epoch": "2025-12-10T18:18:12.275712",
        "meta_mean_motion": 14.10256093,
        "meta_eccentricity": 0.00454371,
        "meta_inclination": 98.6973,
        "meta_ra_of_asc_node": 343.4508,
        "meta_arg_of_pericenter": 355.1749,
        "meta_mean_anomaly": 4.8979,
        "meta_ephemeris_type": 0,
        "meta_classification_type": "U",
        "meta_norad_cat_id": 36681,
        "meta_element_set_no": 999,
        "meta_rev_at_epoch": 72730,
        "meta_bstar": 0.00096687905,
        "meta_mean_motion_dot": 1.688e-05,
        "meta_mean_motion_ddot": 0,
        "tle_line1": "1 36681U 99025DZB 25344.76264208  .00001688  00000+0  96688-3 0  9994",
        "tle_line2": "2 36681  98.6973 343.4508 0045437 355.1749   4.8979 14.10256093727309"
      },
      "geometry": {
        "type": "Point",
        "coordinates": [
          173.689603055108,
          11.823439162409862
        ]
      }
    },
    {
      "type": "Feature",
      "properties": {
        "norad_id": 36682,
        "name": "FENGYUN 1C DEB",
        "group": "fengyun-1c-debris",
        "lat": 42.5797954203919,
        "lon": 84.3494938932846,
        "alt_km": 1085.4680745594387,
        "timestamp": "2025-12-19T10:50:01.489323+00:00",
        "meta_object_name": "FENGYUN 1C DEB",
        "meta_object_id": "1999-025DZC",
        "meta_epoch": "2025-12-18T04:21:02.838240",
        "meta_mean_motion": 13.70147568,
        "meta_eccentricity": 0.02318787,
        "meta_inclination": 98.4843,
        "meta_ra_of_asc_node": 255.3446,
        "meta_arg_of_pericenter": 263.0113,
        "meta_mean_anomaly": 94.4614,
        "meta_ephemeris_type": 0,
        "meta_classification_type": "U",
        "meta_norad_cat_id": 36682,
        "meta_element_set_no": 999,
        "meta_rev_at_epoch": 61467,
        "meta_bstar": 0.00088117458,
        "meta_mean_motion_dot": 8.99e-06,
        "meta_mean_motion_ddot": 0,
        "tle_line1": "1 36682U 99025DZC 25352.18128285  .00000899  00000+0  88117-3 0  9995",
        "tle_line2": "2 36682  98.4843 255.3446 0231878 263.0113  94.4614 13.70147568614671"
      },
      "geometry": {
        "type": "Point",
        "coordinates": [
          84.3494938932846,
          42.5797954203919
        ]
      }
    },
    {
      "type": "Feature",
      "properties": {
        "norad_id": 36684,
        "name": "FENGYUN 1C DEB",
        "group": "fengyun-1c-debris",
        "lat": -10.870974628584992,
        "lon": -94.84976857889755,
        "alt_km": 583.3759536350481,
        "timestamp": "2025-12-19T10:50:01.489333+00:00",
        "meta_object_name": "FENGYUN 1C DEB",
        "meta_object_id": "1999-025DZE",
        "meta_epoch": "2025-12-18T05:06:39.031200",
        "meta_mean_motion": 14.96945082,
        "meta_eccentricity": 0.00184785,
        "meta_inclination": 99.4565,
        "meta_ra_of_asc_node": 85.489,
        "meta_arg_of_pericenter": 90.6821,
        "meta_mean_anomaly": 269.6512,
        "meta_ephemeris_type": 0,
        "meta_classification_type": "U",
        "meta_norad_cat_id": 36684,
        "meta_element_set_no": 999,
        "meta_rev_at_epoch": 65983,
        "meta_bstar": 0.004262867,
        "meta_mean_motion_dot": 0.00049407,
        "meta_mean_motion_ddot": 0,
        "tle_line1": "1 36684U 99025DZE 25352.21295175  .00049407  00000+0  42629-2 0  9999",
        "tle_line2": "2 36684  99.4565  85.4890 0018478  90.6821 269.6512 14.96945082659835"
      },
      "geometry": {
        "type": "Point",
        "coordinates": [
          -94.84976857889755,
          -10.870974628584992
        ]
      }
    },
    {
      "type": "Feature",
      "properties": {
        "norad_id": 36686,
        "name": "FENGYUN 1C DEB",
        "group": "fengyun-1c-debris",
        "lat": -39.517408283509326,
        "lon": -166.85742510903984,
        "alt_km": 621.5147737789694,
        "timestamp": "2025-12-19T10:50:01.489343+00:00",
        "meta_object_name": "FENGYUN 1C DEB",
        "meta_object_id": "1999-025DZG",
        "meta_epoch": "2025-12-18T18:45:25.939872",
        "meta_mean_motion": 14.77277529,
        "meta_eccentricity": 0.01049018,
        "meta_inclination": 99.0004,
        "meta_ra_of_asc_node": 184.8835,
        "meta_arg_of_pericenter": 34.5536,
        "meta_mean_anomaly": 326.243,
        "meta_ephemeris_type": 0,
        "meta_classification_type": "U",
        "meta_norad_cat_id": 36686,
        "meta_element_set_no": 999,
        "meta_rev_at_epoch": 65941,
        "meta_bstar": 0.00053831047,
        "meta_mean_motion_dot": 4.115e-05,
        "meta_mean_motion_ddot": 0,
        "tle_line1": "1 36686U 99025DZG 25352.78155023  .00004115  00000+0  53831-3 0  9995",
        "tle_line2": "2 36686  99.0004 184.8835 0104901  34.5536 326.2430 14.77277529659417"
      },
      "geometry": {
        "type": "Point",
        "coordinates": [
          -166.85742510903984,
          -39.517408283509326
        ]
      }
    },
    {
      "type": "Feature",
      "properties": {
        "norad_id": 36687,
        "name": "FENGYUN 1C DEB",
        "group": "fengyun-1c-debris",
        "lat": 15.826655014768976,
        "lon": -97.88916933599697,
        "alt_km": 869.6452767562942,
        "timestamp": "2025-12-19T10:50:01.489353+00:00",
        "meta_object_name": "FENGYUN 1C DEB",
        "meta_object_id": "1999-025DZH",
        "meta_epoch": "2025-12-17T23:51:08.993376",
        "meta_mean_motion": 14.04533718,
        "meta_eccentricity": 0.00903258,
        "meta_inclination": 98.7154,
        "meta_ra_of_asc_node": 78.2194,
        "meta_arg_of_pericenter": 250.4808,
        "meta_mean_anomaly": 108.6587,
        "meta_ephemeris_type": 0,
        "meta_classification_type": "U",
        "meta_norad_cat_id": 36687,
        "meta_element_set_no": 999,
        "meta_rev_at_epoch": 62796,
        "meta_bstar": 6.2205267e-05,
        "meta_mean_motion_dot": 6e-07,
        "meta_mean_motion_ddot": 0,
        "tle_line1": "1 36687U 99025DZH 25351.99385409  .00000060  00000+0  62205-4 0  9992",
        "tle_line2": "2 36687  98.7154  78.2194 0090325 250.4808 108.6587 14.04533718627964"
      },
      "geometry": {
        "type": "Point",
        "coordinates": [
          -97.88916933599697,
          15.826655014768976
        ]
      }
    },
    {
      "type": "Feature",
      "properties": {
        "norad_id": 36689,
        "name": "FENGYUN 1C DEB",
        "group": "fengyun-1c-debris",
        "lat": -43.33352714785162,
        "lon": -105.35710203847917,
        "alt_km": 806.4550160298522,
        "timestamp": "2025-12-19T10:50:01.489363+00:00",
        "meta_object_name": "FENGYUN 1C DEB",
        "meta_object_id": "1999-025DZK",
        "meta_epoch": "2025-11-28T10:04:14.213280",
        "meta_mean_motion": 13.74189275,
        "meta_eccentricity": 0.03131537,
        "meta_inclination": 98.4796,
        "meta_ra_of_asc_node": 227.8431,
        "meta_arg_of_pericenter": 334.7216,
        "meta_mean_anomaly": 23.8887,
        "meta_ephemeris_type": 0,
        "meta_classification_type": "U",
        "meta_norad_cat_id": 36689,
        "meta_element_set_no": 999,
        "meta_rev_at_epoch": 58016,
        "meta_bstar": 0.0027905602,
        "meta_mean_motion_dot": 3.71e-05,
        "meta_mean_motion_ddot": 0,
        "tle_line1": "1 36689U 99025DZK 25332.41960895  .00003710  00000+0  27906-2 0  9990",
        "tle_line2": "2 36689  98.4796 227.8431 0313153 334.7216  23.8887 13.74189275580169"
      },
      "geometry": {
        "type": "Point",
        "coordinates": [
          -105.35710203847917,
          -43.33352714785162
        ]
      }
    },
    {
      "type": "Feature",
      "properties": {
        "norad_id": 36691,
        "name": "FENGYUN 1C DEB",
        "group": "fengyun-1c-debris",
        "lat": -34.04967927440186,
        "lon": 167.38169066367306,
        "alt_km": 781.6048744005757,
        "timestamp": "2025-12-19T10:50:01.489374+00:00",
        "meta_object_name": "FENGYUN 1C DEB",
        "meta_object_id": "1999-025DZM",
        "meta_epoch": "2025-12-08T17:50:07.073952",
        "meta_mean_motion": 14.07105067,
        "meta_eccentricity": 0.01290803,
        "meta_inclination": 98.6374,
        "meta_ra_of_asc_node": 343.0423,
        "meta_arg_of_pericenter": 246.8073,
        "meta_mean_anomaly": 111.9457,
        "meta_ephemeris_type": 0,
        "meta_classification_type": "U",
        "meta_norad_cat_id": 36691,
        "meta_element_set_no": 999,
        "meta_rev_at_epoch": 59553,
        "meta_bstar": 0.0032098608,
        "meta_mean_motion_dot": 5.753e-05,
        "meta_mean_motion_ddot": 0,
        "tle_line1": "1 36691U 99025DZM 25342.74313743  .00005753  00000+0  32099-2 0  9992",
        "tle_line2": "2 36691  98.6374 343.0423 0129080 246.8073 111.9457 14.07105067595539"
      },
      "geometry": {
        "type": "Point",
        "coordinates": [
          167.38169066367306,
          -34.04967927440186
        ]
      }
    }
  ]
}